26081,GLOBALSTAR M063,2000,121.4,-1.0,-,51.99,Inactive,0,LEO,USA,Globalstar,Unknown,Unknown,Unknown,1 26081U 00008A   25107.93269523 -.00000027  00000+0  81664-3 0  9996,2 26081  51.9945 270.2621 0004691 190.8961 338.0835 11.86169249150492,11.86169249,0.0004691,LEO
26082,GLOBALSTAR M062,2000,115.81,-1.0,-,51.98,Inactive,0,LEO,USA,Globalstar,Unknown,Unknown,Unknown,1 26082U 00008B   25107.93060613 -.00000038  00000+0  43108-3 0  9999,2 26082  51.9845 272.9798 0006683 349.7261 135.2340 12.43464444151620,12.43464444,0.0006683,LEO
26083,GLOBALSTAR M060,2000,118.26,-1.0,-,52.0,Inactive,0,LEO,USA,Globalstar,Unknown,Unknown,Unknown,1 26083U 00008C   25107.75359225 -.00000078  00000+0  13370-3 0  9992,2 26083  52.0013 224.9571 0002800  10.9969 155.2925 12.17659159145001,12.17659159,0.00028,LEO
26084,GLOBALSTAR M064,2000,121.16,-1.0,-,52.01,Inactive,0,LEO,USA,Globalstar,Unknown,Unknown,Unknown,1 26084U 00008D   25107.92824477 -.00000055  00000+0  39731-3 0  9992,2 26084  52.0072   9.8094 0001139 328.3424  31.7340 11.88532668159931,11.88532668,0.0001139,LEO
31571,GLOBALSTAR M065,2007,114.1,450.0,P,51.99,Active,1,LEO,Kazakhstan,Globalstar,Commercial,Communications,Soyuz,1 31571U 07020A   25108.12625735 -.00000086  00000+0  10161-3 0  9999,2 31571  51.9906  49.0713 0010146 171.9798 311.0821 12.62004968826120,12.62004968,0.0010146,LEO
31573,GLOBALSTAR M069,2007,115.93,450.0,+,52.0,Active,1,LEO,Kazakhstan,Globalstar,Commercial,Communications,Soyuz,1 31573U 07020C   25106.72147850 -.00000051  00000+0  33995-3 0  9994,2 31573  51.9977  23.0310 0001242  59.3490 318.2030 12.42144613826536,12.42144613,0.0001242,LEO
31574,GLOBALSTAR M072,2007,120.84,450.0,+,51.99,Active,1,LEO,Kazakhstan,Globalstar,Commercial,Communications,Soyuz,1 31574U 07020D   25107.71807757 -.00000058  00000+0  36065-3 0  9992,2 31574  51.9907 152.9530 0001255 199.0935 300.6793 11.91648581824250,11.91648581,0.0001255,LEO
31576,GLOBALSTAR M071,2007,118.2,450.0,+,52.01,Active,1,LEO,Kazakhstan,Globalstar,Commercial,Communications,Soyuz,1 31576U 07020F   25107.73493076 -.00000137  00000+0 -44922-3 0  9991,2 31576  52.0084  40.2199 0001045  12.5409  16.9611 12.18252098487572,12.18252098,0.0001045,LEO
